OBJECT_NAME,OBJECT_ID,EPOCH,MEAN_MOTION,ECCENTRICITY,INCLINATION,RA_OF_ASC_NODE,ARG_OF_PERICENTER,MEAN_ANOMALY,EPHEMERIS_TYPE,CLASSIFICATION_TYPE,NORAD_CAT_ID,ELEMENT_SET_NO,REV_AT_EPOCH,BSTAR,MEAN_MOTION_DOT,MEAN_MOTION_DDOT
STARLINK-37992,2026-145E,2026-07-17T12:34:38.552448,15.75255277,.00016099,97.2839,45.4807,107.2866,252.8575,0,U,69681,999,354,.11758736E-2,.179502E-2,0
STARLINK-37997,2026-145F,2026-07-17T00:00:02.000160,15.75175815,.00011924,97.2838,44.9322,99.5818,174.9569,0,U,69682,999,471,-.22624739E-4,-.3501E-4,0
STARLINK-37990,2026-145G,2026-07-17T12:34:08.075712,15.75254584,.00016135,97.2842,45.4807,112.9047,247.2389,0,U,69683,999,354,.11667124E-2,.178067E-2,0
STARLINK-37951,2026-145H,2026-07-17T12:32:36.627360,15.75252956,.00013489,97.2841,45.4823,110.0057,250.1354,0,U,69684,999,354,.12139482E-2,.185428E-2,0
STARLINK-37957,2026-145J,2026-07-17T06:25:09.899616,15.75210354,.00014329,97.2839,45.2173,105.2444,254.8980,0,U,69685,999,350,.66715255E-3,.100649E-2,0
STARLINK-37968,2026-145K,2026-07-17T12:22:26.791104,15.75224485,.00016514,97.2844,45.4928,95.9194,264.2259,0,U,69686,999,354,.70100846E-3,.105895E-2,0
STARLINK-37977,2026-145L,2026-07-17T12:21:25.536960,15.75262015,.00013437,97.2841,45.4935,116.2878,243.8526,0,U,69687,999,354,.12064583E-2,.184331E-2,0
STARLINK-37908,2026-145M,2026-07-17T12:18:22.864896,15.75260988,.00013933,97.2839,45.4969,103.7823,256.3598,0,U,69688,999,354,.10266752E-2,.156319E-2,0
STARLINK-37979,2026-145N,2026-07-17T12:17:52.349280,15.75255867,.00013631,97.2850,45.4975,105.8012,254.3404,0,U,69689,999,354,.12504511E-2,.191161E-2,0
STARLINK-37940,2026-145P,2026-07-17T01:35:59.259840,15.75170038,.00014459,97.2839,45.0319,88.4621,271.6810,0,U,69690,999,347,.67352218E-3,.101444E-2,0
STARLINK-37961,2026-145Q,2026-07-17T12:11:46.498848,15.75252633,.00012625,97.2839,45.5018,84.5842,275.5567,0,U,69691,999,354,.11728817E-2,.179012E-2,0
STARLINK-37787,2026-145R,2026-07-17T01:28:22.011168,15.75186480,.00014895,97.2842,45.0387,93.4920,266.6515,0,U,69692,999,347,.11500813E-2,.174945E-2,0
STARLINK-37962,2026-145S,2026-07-17T12:06:11.126880,15.75257721,.00014064,97.2840,45.5080,80.7205,279.4219,0,U,69693,999,354,.12590794E-2,.192527E-2,0
STARLINK-37953,2026-145T,2026-07-17T01:29:53.796480,15.75180134,.00024818,97.2841,45.0375,74.7257,285.4283,0,U,69694,999,347,.96262873E-3,.14588E-2,0
STARLINK-37926,2026-145U,2026-07-17T12:09:14.068512,15.75242604,.00009508,97.2839,45.5052,73.7381,286.3989,0,U,69695,999,354,.11289108E-2,.17208E-2,0
STARLINK-37959,2026-145V,2026-07-17T01:27:20.973888,15.75164016,.00016697,97.2834,45.0383,61.2309,298.9124,0,U,69696,999,347,.81329177E-3,.122801E-2,0
STARLINK-37976,2026-145W,2026-07-17T13:35:07.534752,15.75260046,.00014281,97.2838,45.5763,70.0260,290.1159,0,U,69697,999,355,.11740668E-2,.179256E-2,0
STARLINK-37912,2026-145X,2026-07-17T01:21:45.250272,15.75285434,.00014017,97.2835,45.0455,60.5202,299.6203,0,U,69698,999,347,.14293033E-2,.219535E-2,0
STARLINK-37974,2026-145Y,2026-07-17T01:20:44.812608,15.75254304,.00016353,97.2835,45.0460,78.3038,281.8410,0,U,69699,999,347,.10723297E-2,.163366E-2,0
STARLINK-37955,2026-145Z,2026-07-17T01:17:11.379552,15.75253311,.00013933,97.2833,45.0506,65.2434,294.8976,0,U,69700,999,347,.10008787E-2,.152265E-2,0
STRIX-8,2026-146A,2026-07-17T14:36:50.011488,15.04445837,.00068176,41.9905,359.7218,39.8334,320.2993,0,U,69701,999,314,.1642883E-3,.2146E-4,0
STARLINK-38055,2026-147A,2026-07-17T13:47:32.186112,15.80898018,.00011353,97.2823,235.0989,86.7339,273.4059,0,U,69704,999,423,.95206025E-3,.186879E-2,0
STARLINK-37898,2026-147B,2026-07-17T13:46:20.906976,15.80963522,.00008599,97.2830,235.1000,45.6556,314.4783,0,U,69705,999,423,.15837158E-2,.316619E-2,0
STARLINK-37970,2026-147C,2026-07-17T13:45:16.138944,15.80946447,.00013122,97.2812,235.1018,55.1550,304.9841,0,U,69706,999,423,.14877951E-2,.296503E-2,0
STARLINK-37975,2026-147D,2026-07-17T13:44:11.063328,15.80939588,.00009496,97.2824,235.1024,59.1625,300.9737,0,U,69707,999,423,.1409884E-2,.280358E-2,0
STARLINK-37972,2026-147E,2026-07-17T13:43:06.345408,15.80885071,.00013816,97.2808,235.1043,81.5756,278.5669,0,U,69708,999,423,.11513358E-2,.22694E-2,0
STARLINK-37963,2026-147F,2026-07-17T13:42:01.319040,15.80897642,.00013008,97.2818,235.1044,72.3599,287.7811,0,U,69709,999,423,.99377052E-3,.195259E-2,0
STARLINK-37969,2026-147G,2026-07-17T13:40:56.232192,15.80921867,.00009212,97.2824,235.1055,68.1295,292.0071,0,U,69710,999,423,.11511712E-2,.227299E-2,0
